[{"OBJECT_NAME":"ONEWEB-0183","OBJECT_ID":"2021-031K","EPOCH":"2025-07-28T11:06:20.720448","MEAN_MOTION":13.14502568,"ECCENTRICITY":0.0001736,"INCLINATION":87.9065,"RA_OF_ASC_NODE":354.1348,"ARG_OF_PERICENTER":102.7221,"MEAN_ANOMALY":257.4103,"EPHEMERIS_TYPE":0,"CLASSIFICATION_TYPE":"U","NORAD_CAT_ID":48219,"ELEMENT_SET_NO":999,"REV_AT_EPOCH":20579,"BSTAR":0.00045229,"MEAN_MOTION_DOT":1.8e-6,"MEAN_MOTION_DDOT":0},{"OBJECT_NAME":"ONEWEB-0185","OBJECT_ID":"2021-031L","EPOCH":"2025-07-28T15:23:12.618528","MEAN_MOTION":13.14501564,"ECCENTRICITY":0.000146,"INCLINATION":87.9064,"RA_OF_ASC_NODE":354.0647,"ARG_OF_PERICENTER":104.818,"MEAN_ANOMALY":255.3111,"EPHEMERIS_TYPE":0,"CLASSIFICATION_TYPE":"U","NORAD_CAT_ID":48220,"ELEMENT_SET_NO":999,"REV_AT_EPOCH":20574,"BSTAR":0.00038779,"MEAN_MOTION_DOT":1.57e-6,"MEAN_MOTION_DDOT":0},{"OBJECT_NAME":"ONEWEB-0187","OBJECT_ID":"2021-031M","EPOCH":"2025-07-28T11:15:16.270848","MEAN_MOTION":13.14501913,"ECCENTRICITY":0.0001499,"INCLINATION":87.9067,"RA_OF_ASC_NODE":354.1458,"ARG_OF_PERICENTER":94.7051,"MEAN_ANOMALY":265.425,"EPHEMERIS_TYPE":0,"CLASSIFICATION_TYPE":"U","NORAD_CAT_ID":48221,"ELEMENT_SET_NO":999,"REV_AT_EPOCH":20573,"BSTAR":0.00071223,"MEAN_MOTION_DOT":2.77e-6,"MEAN_MOTION_DDOT":0},{"OBJECT_NAME":"ONEWEB-0192","OBJECT_ID":"2021-031N","EPOCH":"2025-07-28T10:32:04.754688","MEAN_MOTION":13.14503648,"ECCENTRICITY":0.0001804,"INCLINATION":87.9066,"RA_OF_ASC_NODE":354.1445,"ARG_OF_PERICENTER":93.2402,"MEAN_ANOMALY":266.8934,"EPHEMERIS_TYPE":0,"CLASSIFICATION_TYPE":"U","NORAD_CAT_ID":48222,"ELEMENT_SET_NO":999,"REV_AT_EPOCH":20564,"BSTAR":-0.00030641,"MEAN_MOTION_DOT":-1.01e-6,"MEAN_MOTION_DDOT":0},{"OBJECT_NAME":"ONEWEB-0219","OBJECT_ID":"2021-031P","EPOCH":"2025-07-28T19:10:28.191360","MEAN_MOTION":13.1450421,"ECCENTRICITY":0.0001495,"INCLINATION":87.9068,"RA_OF_ASC_NODE":354.0455,"ARG_OF_PERICENTER":97.7675,"MEAN_ANOMALY":262.3625,"EPHEMERIS_TYPE":0,"CLASSIFICATION_TYPE":"U","NORAD_CAT_ID":48223,"ELEMENT_SET_NO":999,"REV_AT_EPOCH":20590,"BSTAR":-0.00035657,"MEAN_MOTION_DOT":-1.19e-6,"MEAN_MOTION_DDOT":0},{"OBJECT_NAME":"ONEWEB-0202","OBJECT_ID":"2021-031Q","EPOCH":"2025-07-28T09:34:59.687616","MEAN_MOTION":13.14503914,"ECCENTRICITY":0.0001741,"INCLINATION":87.9065,"RA_OF_ASC_NODE":354.1391,"ARG_OF_PERICENTER":71.4457,"MEAN_ANOMALY":288.6861,"EPHEMERIS_TYPE":0,"CLASSIFICATION_TYPE":"U","NORAD_CAT_ID":48224,"ELEMENT_SET_NO":999,"REV_AT_EPOCH":20582,"BSTAR":0.00060195,"MEAN_MOTION_DOT":2.36e-6,"MEAN_MOTION_DDOT":0},{"OBJECT_NAME":"ONEWEB-0204","OBJECT_ID":"2021-031R","EPOCH":"2025-07-28T10:24:04.680864","MEAN_MOTION":13.14504053,"ECCENTRICITY":0.0001812,"INCLINATION":87.9047,"RA_OF_ASC_NODE":354.1282,"ARG_OF_PERICENTER":105.75,"MEAN_ANOMALY":254.3829,"EPHEMERIS_TYPE":0,"CLASSIFICATION_TYPE":"U","NORAD_CAT_ID":48225,"ELEMENT_SET_NO":999,"REV_AT_EPOCH":20572,"BSTAR":-0.00040039,"MEAN_MOTION_DOT":-1.36e-6,"MEAN_MOTION_DDOT":0},{"OBJECT_NAME":"ONEWEB-0205","OBJECT_ID":"2021-031S","EPOCH":"2025-07-28T15:17:31.221024","MEAN_MOTION":13.14501422,"ECCENTRICITY":0.000161,"INCLINATION":87.9068,"RA_OF_ASC_NODE":354.0755,"ARG_OF_PERICENTER":96.6173,"MEAN_ANOMALY":263.514,"EPHEMERIS_TYPE":0,"CLASSIFICATION_TYPE":"U","NORAD_CAT_ID":48226,"ELEMENT_SET_NO":999,"REV_AT_EPOCH":20576,"BSTAR":0.00024225,"MEAN_MOTION_DOT":1.03e-6,"MEAN_MOTION_DDOT":0},{"OBJECT_NAME":"ONEWEB-0206","OBJECT_ID":"2021-031T","EPOCH":"2025-07-28T10:59:28.919040","MEAN_MOTION":13.14504214,"ECCENTRICITY":0.0001732,"INCLINATION":87.9062,"RA_OF_ASC_NODE":354.0906,"ARG_OF_PERICENTER":97.7552,"MEAN_ANOMALY":262.3774,"EPHEMERIS_TYPE":0,"CLASSIFICATION_TYPE":"U","NORAD_CAT_ID":48227,"ELEMENT_SET_NO":999,"REV_AT_EPOCH":20569,"BSTAR":0.00038288,"MEAN_MOTION_DOT":1.55e-6,"MEAN_MOTION_DDOT":0},{"OBJECT_NAME":"ONEWEB-0182","OBJECT_ID":"2021-031U","EPOCH":"2025-07-28T10:52:39.258624","MEAN_MOTION":13.14502939,"ECCENTRICITY":0.0001761,"INCLINATION":87.9064,"RA_OF_ASC_NODE":354.1361,"ARG_OF_PERICENTER":103.6997,"MEAN_ANOMALY":256.4328,"EPHEMERIS_TYPE":0,"CLASSIFICATION_TYPE":"U","NORAD_CAT_ID":48228,"ELEMENT_SET_NO":999,"REV_AT_EPOCH":20590,"BSTAR":-9.3323e-5,"MEAN_MOTION_DOT":-2.2e-7,"MEAN_MOTION_DDOT":0},{"OBJECT_NAME":"ONEWEB-0186","OBJECT_ID":"2021-031V","EPOCH":"2025-07-28T11:08:36.956832","MEAN_MOTION":13.14501752,"ECCENTRICITY":0.0001717,"INCLINATION":87.9066,"RA_OF_ASC_NODE":354.0949,"ARG_OF_PERICENTER":95.3011,"MEAN_ANOMALY":264.8315,"EPHEMERIS_TYPE":0,"CLASSIFICATION_TYPE":"U","NORAD_CAT_ID":48229,"ELEMENT_SET_NO":999,"REV_AT_EPOCH":20585,"BSTAR":0.00058149,"MEAN_MOTION_DOT":2.28e-6,"MEAN_MOTION_DDOT":0},{"OBJECT_NAME":"ONEWEB-0181","OBJECT_ID":"2021-031W","EPOCH":"2025-07-28T19:44:41.211744","MEAN_MOTION":13.14504425,"ECCENTRICITY":0.0001726,"INCLINATION":87.9067,"RA_OF_ASC_NODE":354.0959,"ARG_OF_PERICENTER":92.1473,"MEAN_ANOMALY":267.9854,"EPHEMERIS_TYPE":0,"CLASSIFICATION_TYPE":"U","NORAD_CAT_ID":48230,"ELEMENT_SET_NO":999,"REV_AT_EPOCH":20576,"BSTAR":-0.00048218,"MEAN_MOTION_DOT":-1.66e-6,"MEAN_MOTION_DDOT":0},{"OBJECT_NAME":"ONEWEB-0188","OBJECT_ID":"2021-031X","EPOCH":"2025-07-28T15:10:40.581696","MEAN_MOTION":13.14503858,"ECCENTRICITY":0.000176,"INCLINATION":87.9067,"RA_OF_ASC_NODE":354.1245,"ARG_OF_PERICENTER":97.3322,"MEAN_ANOMALY":262.8008,"EPHEMERIS_TYPE":0,"CLASSIFICATION_TYPE":"U","NORAD_CAT_ID":48231,"ELEMENT_SET_NO":999,"REV_AT_EPOCH":20563,"BSTAR":0.00055482,"MEAN_MOTION_DOT":2.18e-6,"MEAN_MOTION_DDOT":0},{"OBJECT_NAME":"ONEWEB-0220","OBJECT_ID":"2021-031Y","EPOCH":"2025-07-28T19:46:59.266848","MEAN_MOTION":13.14502744,"ECCENTRICITY":0.0001563,"INCLINATION":87.9059,"RA_OF_ASC_NODE":354.027,"ARG_OF_PERICENTER":98.6843,"MEAN_ANOMALY":261.4464,"EPHEMERIS_TYPE":0,"CLASSIFICATION_TYPE":"U","NORAD_CAT_ID":48232,"ELEMENT_SET_NO":999,"REV_AT_EPOCH":20592,"BSTAR":-0.00040779,"MEAN_MOTION_DOT":-1.38e-6,"MEAN_MOTION_DDOT":0},{"OBJECT_NAME":"ONEWEB-0165","OBJECT_ID":"2021-031Z","EPOCH":"2025-07-28T11:20:01.965408","MEAN_MOTION":13.14501598,"ECCENTRICITY":0.0001574,"INCLINATION":87.9067,"RA_OF_ASC_NODE":354.1405,"ARG_OF_PERICENTER":95.1956,"MEAN_ANOMALY":264.9354,"EPHEMERIS_TYPE":0,"CLASSIFICATION_TYPE":"U","NORAD_CAT_ID":48233,"ELEMENT_SET_NO":999,"REV_AT_EPOCH":20583,"BSTAR":0.00058992,"MEAN_MOTION_DOT":2.31e-6,"MEAN_MOTION_DDOT":0},{"OBJECT_NAME":"ONEWEB-0199","OBJECT_ID":"2021-031AA","EPOCH":"2025-07-28T20:05:15.009792","MEAN_MOTION":13.14503892,"ECCENTRICITY":0.0001957,"INCLINATION":87.9064,"RA_OF_ASC_NODE":354.0316,"ARG_OF_PERICENTER":97.7883,"MEAN_ANOMALY":262.3469,"EPHEMERIS_TYPE":0,"CLASSIFICATION_TYPE":"U","NORAD_CAT_ID":48234,"ELEMENT_SET_NO":999,"REV_AT_EPOCH":20578,"BSTAR":9.353e-5,"MEAN_MOTION_DOT":4.7e-7,"MEAN_MOTION_DDOT":0},{"OBJECT_NAME":"ONEWEB-0203","OBJECT_ID":"2021-031AB","EPOCH":"2025-07-28T10:43:29.815968","MEAN_MOTION":13.14502164,"ECCENTRICITY":0.000197,"INCLINATION":87.9061,"RA_OF_ASC_NODE":354.1118,"ARG_OF_PERICENTER":89.8924,"MEAN_ANOMALY":270.2431,"EPHEMERIS_TYPE":0,"CLASSIFICATION_TYPE":"U","NORAD_CAT_ID":48235,"ELEMENT_SET_NO":999,"REV_AT_EPOCH":20574,"BSTAR":-4.9951e-5,"MEAN_MOTION_DOT":-6.0e-8,"MEAN_MOTION_DDOT":0}]
