ONEWEB-0183             
1 48219U 21031K   25209.46273982  .00000180  00000+0  45229-3 0  9993
2 48219  87.9065 354.1348 0001736 102.7221 257.4103 13.14502568205791
ONEWEB-0185             
1 48220U 21031L   25209.64111827  .00000157  00000+0  38779-3 0  9990
2 48220  87.9064 354.0647 0001460 104.8180 255.3111 13.14501564205740
ONEWEB-0187             
1 48221U 21031M   25209.46893832  .00000277  00000+0  71223-3 0  9998
2 48221  87.9067 354.1458 0001499  94.7051 265.4250 13.14501913205734
ONEWEB-0192             
1 48222U 21031N   25209.43894392 -.00000101  00000+0 -30641-3 0  9995
2 48222  87.9066 354.1445 0001804  93.2402 266.8934 13.14503648205645
ONEWEB-0219             
1 48223U 21031P   25209.79893740 -.00000119  00000+0 -35657-3 0  9992
2 48223  87.9068 354.0455 0001495  97.7675 262.3625 13.14504210205908
ONEWEB-0202             
1 48224U 21031Q   25209.39930194  .00000236  00000+0  60195-3 0  9997
2 48224  87.9065 354.1391 0001741  71.4457 288.6861 13.14503914205821
ONEWEB-0204             
1 48225U 21031R   25209.43338751 -.00000136  00000+0 -40039-3 0  9990
2 48225  87.9047 354.1282 0001812 105.7500 254.3829 13.14504053205728
ONEWEB-0205             
1 48226U 21031S   25209.63716691  .00000103  00000+0  24225-3 0  9997
2 48226  87.9068 354.0755 0001610  96.6173 263.5140 13.14501422205765
ONEWEB-0206             
1 48227U 21031T   25209.45797360  .00000155  00000+0  38288-3 0  9991
2 48227  87.9062 354.0906 0001732  97.7552 262.3774 13.14504214205690
ONEWEB-0182             
1 48228U 21031U   25209.45323216 -.00000022  00000+0 -93323-4 0  9994
2 48228  87.9064 354.1361 0001761 103.6997 256.4328 13.14502939205906
ONEWEB-0186             
1 48229U 21031V   25209.46431663  .00000228  00000+0  58149-3 0  9994
2 48229  87.9066 354.0949 0001717  95.3011 264.8315 13.14501752205850
ONEWEB-0181             
1 48230U 21031W   25209.82269921 -.00000166  00000+0 -48218-3 0  9991
2 48230  87.9067 354.0959 0001726  92.1473 267.9854 13.14504425205763
ONEWEB-0188             
1 48231U 21031X   25209.63241414  .00000218  00000+0  55482-3 0  9995
2 48231  87.9067 354.1245 0001760  97.3322 262.8008 13.14503858205631
ONEWEB-0220             
1 48232U 21031Y   25209.82429707 -.00000138  00000+0 -40779-3 0  9996
2 48232  87.9059 354.0270 0001563  98.6843 261.4464 13.14502744205929
ONEWEB-0165             
1 48233U 21031Z   25209.47224497  .00000231  00000+0  58992-3 0  9995
2 48233  87.9067 354.1405 0001574  95.1956 264.9354 13.14501598205831
ONEWEB-0199             
1 48234U 21031AA  25209.83697928  .00000047  00000+0  93530-4 0  9992
2 48234  87.9064 354.0316 0001957  97.7883 262.3469 13.14503892205783
ONEWEB-0203             
1 48235U 21031AB  25209.44687287 -.00000006  00000+0 -49951-4 0  9992
2 48235  87.9061 354.1118 0001970  89.8924 270.2431 13.14502164205749
